[{"OBJECT_NAME":"HJ-2E","OBJECT_ID":"2022-132A","EPOCH":"2026-03-09T23:35:26.064384","MEAN_MOTION":15.20837982,"ECCENTRICITY":0.00208255,"INCLINATION":97.3835,"RA_OF_ASC_NODE":75.2449,"ARG_OF_PERICENTER":2.2489,"MEAN_ANOMALY":357.8836,"EPHEMERIS_TYPE":0,"CLASSIFICATION_TYPE":"U","NORAD_CAT_ID":54035,"ELEMENT_SET_NO":999,"REV_AT_EPOCH":18933,"BSTAR":0.00049905736,"MEAN_MOTION_DOT":0.00011016,"MEAN_MOTION_DDOT":0},{"OBJECT_NAME":"STARLINK-30240","OBJECT_ID":"2023-102A","EPOCH":"2026-03-09T22:00:01.999584","MEAN_MOTION":15.19463354,"ECCENTRICITY":9.931e-5,"INCLINATION":42.9994,"RA_OF_ASC_NODE":246.9127,"ARG_OF_PERICENTER":289.6396,"MEAN_ANOMALY":268.9521,"EPHEMERIS_TYPE":0,"CLASSIFICATION_TYPE":"U","NORAD_CAT_ID":57404,"ELEMENT_SET_NO":999,"REV_AT_EPOCH":567,"BSTAR":0.045670367,"MEAN_MOTION_DOT":0.01065995,"MEAN_MOTION_DDOT":0}]
